     2.100          NAVIGATION                              RINEX VERSION / TYPE
fic2rin                                 12/11/2014 00:26:12 PGM / RUN BY / DATE
                                                            END OF HEADER
 8 14 12 10 18  0  0.0  .166795216501D-04  .227373675443D-12  .000000000000D+00
     .670000000000D+02  .942500000000D+02  .362229374022D-08 -.968196838907D+00
     .489689409733D-05  .147611217108D-01  .798329710960D-05  .515219510460D+04
     .324000000000D+06  .406056642532D-06 -.194020556981D+01 -.484287738800D-07
     .995286364461D+00  .245562500000D+03 -.268170069560D+01 -.771424990090D-08
     .992898501065D-10  .100000000000D+01  .182200000000D+04  .000000000000D+00
     .240000000000D+01  .630000000000D+02 -.465661287308D-08  .670000000000D+02
     .316806000000D+06  .400000000000D+01
 9 14 12 10 18  0  0.0 -.243913382292D-04 -.909494701773D-11  .000000000000D+00
     .230000000000D+02  .265625000000D+01  .452911722734D-08 -.123248909812D+00
     .614672899246D-07  .226185657084D-03  .864081084728D-05  .515369430733D+04
     .324000000000D+06 -.372529029846D-08 -.311886657379D+01 -.372529029846D-07
     .959212495759D+00  .211375000000D+03  .278893904228D+01 -.796640326124D-08
    -.515378610445D-09  .100000000000D+01  .182200000000D+04  .000000000000D+00
     .240000000000D+01  .000000000000D+00  .465661287308D-09  .230000000000D+02
     .316806000000D+06  .400000000000D+01
10 14 12 10 18  0  0.0 -.153569504619D-03 -.170530256582D-11  .000000000000D+00
     .480000000000D+02  .147500000000D+02  .537808116152D-08  .192336643767D+01
     .583007931709D-06  .144138943870D-01  .603124499321D-05  .515363642502D+04
     .324000000000D+06 -.327825546265D-06  .213106673356D+01 -.232830643654D-06
     .941240627616D+00  .255343750000D+03  .907317704921D+00 -.835891961113D-08
     .792890169915D-10  .100000000000D+01  .182200000000D+04  .000000000000D+00
     .340000000000D+01  .000000000000D+00 -.325962901115D-08  .480000000000D+02
     .316806000000D+06  .400000000000D+01
11 14 12 10 18  0  0.0 -.542606692761D-03 -.272848410532D-11  .000000000000D+00
     .560000000000D+02 -.514375000000D+02  .583845748090D-08 -.184111209999D+01
    -.251643359661D-05  .156311328756D-01  .990182161331D-05  .515372375107D+04
     .324000000000D+06  .322237610817D-06  .740535616841D+00  .137835741043D-06
     .891923852460D+00  .145187500000D+03  .136685910093D+01 -.840785022071D-08
     .300726812193D-09  .100000000000D+01  .182200000000D+04  .000000000000D+00
     .240000000000D+01  .000000000000D+00 -.121071934700D-07  .560000000000D+02
     .316806000000D+06  .400000000000D+01
12 14 12 10 18  0  0.0  .252581201494D-03  .284217094304D-11  .000000000000D+00
     .100000000000D+02  .750000000000D+00  .400088093846D-08 -.234766014796D+01
     .126659870148D-06  .503156334162D-02  .254064798355D-05  .515376796913D+04
     .324000000000D+06  .558793544769D-08 -.977576746327D+00 -.298023223877D-07
     .988782571540D+00  .345531250000D+03  .498421598014D+00 -.797533220460D-08
     .118219210019D-09  .100000000000D+01  .182200000000D+04  .000000000000D+00
     .240000000000D+01  .000000000000D+00 -.121071934700D-07  .100000000000D+02
     .316806000000D+06  .400000000000D+01
13 14 12 10 18  0  0.0 -.683688558638D-04 -.341060513165D-11  .000000000000D+00
     .950000000000D+02  .887500000000D+01  .418195990970D-08 -.852587578426D+00
     .482425093651D-06  .587076216470D-02  .904686748981D-05  .515589290619D+04
     .324000000000D+06 -.596046447754D-07 -.300648496264D+01 -.502914190292D-07
     .976064899489D+00  .211562500000D+03  .220968318457D+01 -.786139888739D-08
    -.415731602604D-09  .100000000000D+01  .182200000000D+04  .000000000000D+00
     .240000000000D+01  .000000000000D+00 -.111758708954D-07  .950000000000D+02
     .316806000000D+06  .400000000000D+01
14 14 12 10 18  0  0.0  .107656233013D-03 -.363797880709D-11  .000000000000D+00
     .920000000000D+02  .102187500000D+02  .436411035414D-08  .684753732707D+00
     .542029738426D-06  .778780737892D-02  .926852226257D-05  .515375926208D+04
     .324000000000D+06 -.614672899246D-07 -.303988830218D+01  .577419996262D-07
     .968568762422D+00  .207468750000D+03 -.196667594747D+01 -.799569019545D-08
    -.561094800422D-09  .100000000000D+01  .182200000000D+04  .000000000000D+00
     .240000000000D+01  .000000000000D+00 -.931322574615D-08  .920000000000D+02
     .316806000000D+06  .400000000000D+01
15 14 12 10 18  0  0.0 -.219548586756D-03 -.216004991671D-11  .000000000000D+00
     .740000000000D+02 -.240625000000D+01  .518093009225D-08  .430578191310D-02
    -.171363353729D-06  .696171459276D-02  .785104930401D-05  .515381596565D+04
     .324000000000D+06  .353902578354D-07  .312483950300D+01  .707805156708D-07
     .935145715910D+00  .211656250000D+03  .325306468812D+00 -.838927801853D-08
    -.534307970357D-09  .100000000000D+01  .182200000000D+04  .000000000000D+00
     .240000000000D+01  .000000000000D+00 -.102445483208D-07  .740000000000D+02
     .316806000000D+06  .400000000000D+01
16 14 12 10 18  0  0.0 -.174249988049D-03  .295585778076D-11  .000000000000D+00
     .530000000000D+02  .465625000000D+01  .408481300600D-08  .178890316505D+01
     .281259417534D-06  .779382954352D-02  .243447721004D-05  .515370839882D+04
     .324000000000D+06 -.577419996262D-07 -.958941917357D+00  .633299350739D-07
     .989360763578D+00  .349687500000D+03  .228766349882D+00 -.813212444991D-08
     .153577825704D-10  .100000000000D+01  .182200000000D+04  .000000000000D+00
     .240000000000D+01  .000000000000D+00 -.102445483208D-07  .530000000000D+02
     .316806000000D+06  .400000000000D+01
17 14 12 10 18  0  0.0 -.143033452332D-03 -.238742359215D-11  .000000000000D+00
     .101000000000D+03 -.929375000000D+02  .427767818247D-08  .872229009142D+00
    -.492669641972D-05  .982976413798D-02  .728294253349D-05  .515368666649D+04
     .324000000000D+06 -.126659870148D-06  .699174983102D-01  .372529029846D-08
     .971052416962D+00  .244968750000D+03 -.207260267691D+01 -.809998025383D-08
    -.145006040084D-09  .100000000000D+01  .182200000000D+04  .000000000000D+00
     .240000000000D+01  .000000000000D+00 -.107102096081D-07  .101000000000D+03
     .316806000000D+06  .400000000000D+01
18 14 12 10 18  0  0.0  .364193692803D-03  .261479726760D-11  .000000000000D+00
     .104000000000D+03  .126250000000D+02  .564130641163D-08  .235297633959D+01
     .433996319771D-06  .155109987827D-01  .521168112755D-05  .515374020195D+04
     .324000000000D+06  .108033418655D-06  .210544183770D+01 -.262632966042D-06
     .924996461335D+00  .258156250000D+03 -.200053565162D+01 -.833749014707D-08
     .603596570791D-10  .100000000000D+01  .182200000000D+04  .000000000000D+00
     .340000000000D+01  .000000000000D+00 -.111758708954D-07  .104000000000D+03
     .316806000000D+06  .400000000000D+01
19 14 12 10 18  0  0.0 -.491862650961D-03 -.159161572810D-11  .000000000000D+00
     .660000000000D+02 -.105000000000D+03  .433446626220D-08  .266023094644D-01
    -.539794564247D-05  .107509725494D-01  .770390033722D-05  .515367863274D+04
     .324000000000D+06  .130385160446D-06  .120058513696D+00  .128522515297D-06
     .968132738226D+00  .235593750000D+03  .513492872651D+00 -.816033991091D-08
    -.985755346381D-10  .100000000000D+01  .182200000000D+04  .000000000000D+00
     .240000000000D+01  .000000000000D+00 -.149011611938D-07  .660000000000D+02
     .316806000000D+06  .400000000000D+01
20 14 12 10 18  0  0.0  .265890266746D-03  .409272615798D-11  .000000000000D+00
     .420000000000D+02  .171250000000D+02  .567309344997D-08  .288238934217D+01
     .869855284691D-06  .630018941592D-02  .573322176933D-05  .515366823578D+04
     .324000000000D+06  .689178705215D-07  .205256851559D+01 -.145286321640D-06
     .926092953546D+00  .247281250000D+03  .133893575303D+01 -.848321050263D-08
     .107504477993D-09  .100000000000D+01  .182200000000D+04  .000000000000D+00
     .240000000000D+01  .000000000000D+00 -.838190317154D-08  .420000000000D+02
     .316806000000D+06  .400000000000D+01
21 14 12 10 18  0  0.0 -.399493146688D-03 -.204636307899D-11  .000000000000D+00
     .112000000000D+03 -.110625000000D+02  .491056168746D-08 -.295458272554D+01
    -.862404704094D-06  .218177683419D-01  .106170773506D-04  .515365480423D+04
     .324000000000D+06  .275671482086D-06  .106095766551D+01 -.201165676117D-06
     .932940899407D+00  .155156250000D+03 -.197157851657D+01 -.779603902203D-08
     .476805575152D-09  .100000000000D+01  .182200000000D+04  .000000000000D+00
     .240000000000D+01  .000000000000D+00 -.116415321827D-07  .112000000000D+03
     .316806000000D+06  .400000000000D+01
22 14 12 10 18  0  0.0  .295449513942D-03  .386535248253D-11  .000000000000D+00
     .770000000000D+02  .152812500000D+02  .586631578417D-08  .183929736621D+01
     .733882188797D-06  .731104461011D-02  .550039112568D-05  .515370494080D+04
     .324000000000D+06 -.122934579849D-06  .210694559314D+01 -.165775418282D-06
     .922793747046D+00  .255343750000D+03 -.206357853946D+01 -.864464579848D-08
     .110004582132D-09  .100000000000D+01  .182200000000D+04  .000000000000D+00
     .240000000000D+01  .000000000000D+00 -.176951289177D-07  .770000000000D+02
     .316806000000D+06  .400000000000D+01
23 14 12 10 18  0  0.0 -.735027715564D-04 -.272848410532D-11  .000000000000D+00
     .730000000000D+02  .293750000000D+01  .481734351884D-08 -.422245351414D+00
     .745058059692D-07  .969188602176D-02  .848248600960D-05  .515369541931D+04
     .324000000000D+06  .126659870148D-06 -.310872224486D+01  .102445483208D-06
     .950282984243D+00  .208968750000D+03 -.271811065656D+01 -.823248577322D-08
    -.553594488004D-09  .100000000000D+01  .182200000000D+04  .000000000000D+00
     .240000000000D+01  .000000000000D+00 -.200234353542D-07  .730000000000D+02
     .316806000000D+06  .400000000000D+01
